PISAT                   
1 41784U 16059B   23116.88867071  .00001327  00000+0  25721-3 0  9995
2 41784  97.8749 152.4294 0029923 256.8700 102.9164 14.64579868351550
HXMT (HUIYAN)           
1 42758U 17034A   23117.32853061  .00006306  00000+0  36877-3 0  9991
2 42758  43.0168  59.4728 0007109  73.6351  63.1265 15.12442559323679
FLYING LAPTOP           
1 42831U 17042G   23117.15341275  .00002236  00000+0  22022-3 0  9997
2 42831  97.3942 317.9733 0014551  42.1071 318.1237 14.92921908314871
PICSAT                  
1 43132U 18004X   23116.23065496  .00054533  00000+0  92819-3 0  9995
2 43132  97.3319 198.2091 0004046 295.7284  64.3550 15.51226436294472
ZHANGZHENG-1 (CSES)     
1 43194U 18015C   23117.56489881  .00012722  00000+0  58300-3 0  9991
2 43194  97.5574 253.5845 0006419 150.5600 339.9240 15.20588763290364
ICON                    
1 44628U 19068A   23116.18822974  .00003917  00000+0  32993-3 0  9990
2 44628  26.9887  62.0974 0017918 154.1061 206.0397 14.95047552193370
SALSAT                  
1 46495U 20068K   23116.41362363  .00004668  00000+0  31331-3 0  9992
2 46495  97.7654  63.9013 0014146 299.2467  60.7345 15.07250833141279
IXPE                    
1 49954U 21121A   23116.59281824  .00004408  00000+0  33432-3 0  9993
2 49954   0.2296 240.5567 0010508 221.7104 257.8503 14.93592087 75293
