[{"OBJECT_NAME":"PISAT","OBJECT_ID":"2016-059B","EPOCH":"2023-04-26T21:19:41.149344","MEAN_MOTION":14.64579868,"ECCENTRICITY":0.0029923,"INCLINATION":97.8749,"RA_OF_ASC_NODE":152.4294,"ARG_OF_PERICENTER":256.87,"MEAN_ANOMALY":102.9164,"EPHEMERIS_TYPE":0,"CLASSIFICATION_TYPE":"U","NORAD_CAT_ID":41784,"ELEMENT_SET_NO":999,"REV_AT_EPOCH":35155,"BSTAR":0.00025721,"MEAN_MOTION_DOT":1.327e-5,"MEAN_MOTION_DDOT":0},{"OBJECT_NAME":"HXMT (HUIYAN)","OBJECT_ID":"2017-034A","EPOCH":"2023-04-27T07:53:05.044704","MEAN_MOTION":15.12442559,"ECCENTRICITY":0.0007109,"INCLINATION":43.0168,"RA_OF_ASC_NODE":59.4728,"ARG_OF_PERICENTER":73.6351,"MEAN_ANOMALY":63.1265,"EPHEMERIS_TYPE":0,"CLASSIFICATION_TYPE":"U","NORAD_CAT_ID":42758,"ELEMENT_SET_NO":999,"REV_AT_EPOCH":32367,"BSTAR":0.00036877,"MEAN_MOTION_DOT":6.306e-5,"MEAN_MOTION_DDOT":0},{"OBJECT_NAME":"FLYING LAPTOP","OBJECT_ID":"2017-042G","EPOCH":"2023-04-27T03:40:54.861600","MEAN_MOTION":14.92921908,"ECCENTRICITY":0.0014551,"INCLINATION":97.3942,"RA_OF_ASC_NODE":317.9733,"ARG_OF_PERICENTER":42.1071,"MEAN_ANOMALY":318.1237,"EPHEMERIS_TYPE":0,"CLASSIFICATION_TYPE":"U","NORAD_CAT_ID":42831,"ELEMENT_SET_NO":999,"REV_AT_EPOCH":31487,"BSTAR":0.00022022,"MEAN_MOTION_DOT":2.236e-5,"MEAN_MOTION_DDOT":0},{"OBJECT_NAME":"PICSAT","OBJECT_ID":"2018-004X","EPOCH":"2023-04-26T05:32:08.588544","MEAN_MOTION":15.51226436,"ECCENTRICITY":0.0004046,"INCLINATION":97.3319,"RA_OF_ASC_NODE":198.2091,"ARG_OF_PERICENTER":295.7284,"MEAN_ANOMALY":64.355,"EPHEMERIS_TYPE":0,"CLASSIFICATION_TYPE":"U","NORAD_CAT_ID":43132,"ELEMENT_SET_NO":999,"REV_AT_EPOCH":29447,"BSTAR":0.00092819,"MEAN_MOTION_DOT":0.00054533,"MEAN_MOTION_DDOT":0},{"OBJECT_NAME":"ZHANGZHENG-1 (CSES)","OBJECT_ID":"2018-015C","EPOCH":"2023-04-27T13:33:27.257184","MEAN_MOTION":15.20588763,"ECCENTRICITY":0.0006419,"INCLINATION":97.5574,"RA_OF_ASC_NODE":253.5845,"ARG_OF_PERICENTER":150.56,"MEAN_ANOMALY":339.924,"EPHEMERIS_TYPE":0,"CLASSIFICATION_TYPE":"U","NORAD_CAT_ID":43194,"ELEMENT_SET_NO":999,"REV_AT_EPOCH":29036,"BSTAR":0.000583,"MEAN_MOTION_DOT":0.00012722,"MEAN_MOTION_DDOT":0},{"OBJECT_NAME":"ICON","OBJECT_ID":"2019-068A","EPOCH":"2023-04-26T04:31:03.049536","MEAN_MOTION":14.95047552,"ECCENTRICITY":0.0017918,"INCLINATION":26.9887,"RA_OF_ASC_NODE":62.0974,"ARG_OF_PERICENTER":154.1061,"MEAN_ANOMALY":206.0397,"EPHEMERIS_TYPE":0,"CLASSIFICATION_TYPE":"U","NORAD_CAT_ID":44628,"ELEMENT_SET_NO":999,"REV_AT_EPOCH":19337,"BSTAR":0.00032993,"MEAN_MOTION_DOT":3.917e-5,"MEAN_MOTION_DDOT":0},{"OBJECT_NAME":"SALSAT","OBJECT_ID":"2020-068K","EPOCH":"2023-04-26T09:55:37.081632","MEAN_MOTION":15.07250833,"ECCENTRICITY":0.0014146,"INCLINATION":97.7654,"RA_OF_ASC_NODE":63.9013,"ARG_OF_PERICENTER":299.2467,"MEAN_ANOMALY":60.7345,"EPHEMERIS_TYPE":0,"CLASSIFICATION_TYPE":"U","NORAD_CAT_ID":46495,"ELEMENT_SET_NO":999,"REV_AT_EPOCH":14127,"BSTAR":0.00031331,"MEAN_MOTION_DOT":4.668e-5,"MEAN_MOTION_DDOT":0},{"OBJECT_NAME":"IXPE","OBJECT_ID":"2021-121A","EPOCH":"2023-04-26T14:13:39.495936","MEAN_MOTION":14.93592087,"ECCENTRICITY":0.0010508,"INCLINATION":0.2296,"RA_OF_ASC_NODE":240.5567,"ARG_OF_PERICENTER":221.7104,"MEAN_ANOMALY":257.8503,"EPHEMERIS_TYPE":0,"CLASSIFICATION_TYPE":"U","NORAD_CAT_ID":49954,"ELEMENT_SET_NO":999,"REV_AT_EPOCH":7529,"BSTAR":0.00033432,"MEAN_MOTION_DOT":4.408e-5,"MEAN_MOTION_DDOT":0}]
